<?xml version="1.0" encoding="UTF-8"?>
<gpx version="1.1" creator="travel-together" xmlns="http://www.topografix.com/GPX/1/1">
  <metadata>
    <name>龙门-般若苑-涌泉寺-鼓山古道</name>
    <desc>从两步路提取的福州鼓山古道徒步轨迹，9.32km</desc>
  </metadata>
  <trk>
    <name>龙门-般若苑-涌泉寺-鼓山古道</name>
    <trkseg>
      <trkpt lat="26.029579" lon="119.409604"></trkpt>
      <trkpt lat="26.029727" lon="119.409885"></trkpt>
      <trkpt lat="26.030092" lon="119.409757"></trkpt>
      <trkpt lat="26.030091" lon="119.409269"></trkpt>
      <trkpt lat="26.030112" lon="119.409972"></trkpt>
      <trkpt lat="26.030421" lon="119.41011"></trkpt>
      <trkpt lat="26.03157" lon="119.410236"></trkpt>
      <trkpt lat="26.032008" lon="119.409977"></trkpt>
      <trkpt lat="26.032054" lon="119.410199"></trkpt>
      <trkpt lat="26.03223" lon="119.410099"></trkpt>
      <trkpt lat="26.033027" lon="119.410542"></trkpt>
      <trkpt lat="26.033206" lon="119.410829"></trkpt>
      <trkpt lat="26.033163" lon="119.411172"></trkpt>
      <trkpt lat="26.033353" lon="119.411211"></trkpt>
      <trkpt lat="26.034101" lon="119.410341"></trkpt>
      <trkpt lat="26.034341" lon="119.410441"></trkpt>
      <trkpt lat="26.03499" lon="119.410314"></trkpt>
      <trkpt lat="26.035148" lon="119.40987"></trkpt>
      <trkpt lat="26.035568" lon="119.409518"></trkpt>
      <trkpt lat="26.035967" lon="119.40956"></trkpt>
      <trkpt lat="26.036628" lon="119.409207"></trkpt>
      <trkpt lat="26.037744" lon="119.409436"></trkpt>
      <trkpt lat="26.038247" lon="119.409025"></trkpt>
      <trkpt lat="26.038857" lon="119.408887"></trkpt>
      <trkpt lat="26.039518" lon="119.408287"></trkpt>
      <trkpt lat="26.040219" lon="119.408312"></trkpt>
      <trkpt lat="26.04134" lon="119.408029"></trkpt>
      <trkpt lat="26.041852" lon="119.406931"></trkpt>
      <trkpt lat="26.040931" lon="119.406256"></trkpt>
      <trkpt lat="26.040776" lon="119.405688"></trkpt>
      <trkpt lat="26.040923" lon="119.404604"></trkpt>
      <trkpt lat="26.041439" lon="119.404225"></trkpt>
      <trkpt lat="26.041517" lon="119.403951"></trkpt>
      <trkpt lat="26.042298" lon="119.403077"></trkpt>
      <trkpt lat="26.043199" lon="119.402714"></trkpt>
      <trkpt lat="26.043723" lon="119.402144"></trkpt>
      <trkpt lat="26.044389" lon="119.402213"></trkpt>
      <trkpt lat="26.044245" lon="119.402417"></trkpt>
      <trkpt lat="26.044355" lon="119.402216"></trkpt>
      <trkpt lat="26.044785" lon="119.402265"></trkpt>
      <trkpt lat="26.045058" lon="119.402609"></trkpt>
      <trkpt lat="26.045402" lon="119.402448"></trkpt>
      <trkpt lat="26.045418" lon="119.402247"></trkpt>
      <trkpt lat="26.04572" lon="119.402219"></trkpt>
      <trkpt lat="26.045993" lon="119.401377"></trkpt>
      <trkpt lat="26.046226" lon="119.401438"></trkpt>
      <trkpt lat="26.046091" lon="119.401301"></trkpt>
      <trkpt lat="26.046322" lon="119.401653"></trkpt>
      <trkpt lat="26.046205" lon="119.401684"></trkpt>
      <trkpt lat="26.046324" lon="119.401494"></trkpt>
      <trkpt lat="26.045632" lon="119.401309"></trkpt>
      <trkpt lat="26.045347" lon="119.402394"></trkpt>
      <trkpt lat="26.045192" lon="119.402477"></trkpt>
      <trkpt lat="26.045092" lon="119.402196"></trkpt>
      <trkpt lat="26.045234" lon="119.401089"></trkpt>
      <trkpt lat="26.04501" lon="119.400685"></trkpt>
      <trkpt lat="26.045134" lon="119.400209"></trkpt>
      <trkpt lat="26.045905" lon="119.400425"></trkpt>
      <trkpt lat="26.046927" lon="119.400391"></trkpt>
      <trkpt lat="26.04755" lon="119.400141"></trkpt>
      <trkpt lat="26.048278" lon="119.399549"></trkpt>
      <trkpt lat="26.04849" lon="119.399583"></trkpt>
      <trkpt lat="26.048685" lon="119.399861"></trkpt>
      <trkpt lat="26.048918" lon="119.39936"></trkpt>
      <trkpt lat="26.049384" lon="119.399192"></trkpt>
      <trkpt lat="26.049079" lon="119.3985"></trkpt>
      <trkpt lat="26.049141" lon="119.397527"></trkpt>
      <trkpt lat="26.049456" lon="119.39734"></trkpt>
      <trkpt lat="26.050239" lon="119.397106"></trkpt>
      <trkpt lat="26.050966" lon="119.397173"></trkpt>
      <trkpt lat="26.051306" lon="119.396912"></trkpt>
      <trkpt lat="26.052094" lon="119.397742"></trkpt>
      <trkpt lat="26.052535" lon="119.39764"></trkpt>
      <trkpt lat="26.052717" lon="119.397795"></trkpt>
      <trkpt lat="26.052752" lon="119.39768"></trkpt>
      <trkpt lat="26.053104" lon="119.397702"></trkpt>
      <trkpt lat="26.053249" lon="119.39748"></trkpt>
      <trkpt lat="26.053755" lon="119.397585"></trkpt>
      <trkpt lat="26.054155" lon="119.397017"></trkpt>
      <trkpt lat="26.054349" lon="119.397114"></trkpt>
      <trkpt lat="26.054598" lon="119.39691"></trkpt>
      <trkpt lat="26.054714" lon="119.396974"></trkpt>
      <trkpt lat="26.054522" lon="119.396959"></trkpt>
      <trkpt lat="26.054361" lon="119.396625"></trkpt>
      <trkpt lat="26.05495" lon="119.396121"></trkpt>
      <trkpt lat="26.055093" lon="119.395827"></trkpt>
      <trkpt lat="26.055038" lon="119.395418"></trkpt>
      <trkpt lat="26.054904" lon="119.395826"></trkpt>
      <trkpt lat="26.054966" lon="119.395382"></trkpt>
      <trkpt lat="26.054666" lon="119.395731"></trkpt>
      <trkpt lat="26.054011" lon="119.395656"></trkpt>
      <trkpt lat="26.05388" lon="119.396119"></trkpt>
      <trkpt lat="26.053494" lon="119.396284"></trkpt>
      <trkpt lat="26.053178" lon="119.396112"></trkpt>
      <trkpt lat="26.052711" lon="119.394733"></trkpt>
      <trkpt lat="26.053074" lon="119.394226"></trkpt>
      <trkpt lat="26.053052" lon="119.393659"></trkpt>
      <trkpt lat="26.053455" lon="119.393344"></trkpt>
      <trkpt lat="26.053489" lon="119.392795"></trkpt>
      <trkpt lat="26.053002" lon="119.391829"></trkpt>
      <trkpt lat="26.052823" lon="119.390845"></trkpt>
      <trkpt lat="26.053118" lon="119.389264"></trkpt>
      <trkpt lat="26.052523" lon="119.388341"></trkpt>
      <trkpt lat="26.052749" lon="119.388076"></trkpt>
      <trkpt lat="26.053218" lon="119.387934"></trkpt>
      <trkpt lat="26.052922" lon="119.387584"></trkpt>
      <trkpt lat="26.051869" lon="119.38726"></trkpt>
      <trkpt lat="26.052778" lon="119.386736"></trkpt>
      <trkpt lat="26.052387" lon="119.386306"></trkpt>
      <trkpt lat="26.053298" lon="119.385323"></trkpt>
      <trkpt lat="26.053349" lon="119.384523"></trkpt>
      <trkpt lat="26.05423" lon="119.384073"></trkpt>
      <trkpt lat="26.054315" lon="119.383493"></trkpt>
      <trkpt lat="26.054644" lon="119.383066"></trkpt>
      <trkpt lat="26.054034" lon="119.381248"></trkpt>
      <trkpt lat="26.053865" lon="119.379983"></trkpt>
      <trkpt lat="26.053862" lon="119.379768"></trkpt>
      <trkpt lat="26.054348" lon="119.379618"></trkpt>
      <trkpt lat="26.05361" lon="119.378689"></trkpt>
      <trkpt lat="26.05298" lon="119.378088"></trkpt>
      <trkpt lat="26.052663" lon="119.377989"></trkpt>
      <trkpt lat="26.05321" lon="119.377717"></trkpt>
      <trkpt lat="26.053331" lon="119.377243"></trkpt>
    </trkseg>
  </trk>
</gpx>